satname,norad_id,inclination_deg,eccentricity,mean_motion_rev_per_day,perigee_km,apogee_km,l1,l2
STARLINK-1540,46051,53.1586,0.0001174,15.30215714,474.36357262462025,475.9727286739926,1 46051U 20055AA  26106.82775885  .00004933  00000+0  17848-3 0  9992,2 46051  53.1586 296.6966 0001174  95.5685 264.5450 15.30215714314925
STARLINK-1541,46052,53.1592,0.0001059,15.49471647,417.5508915408491,418.99037067711834,1 46052U 20055AB  26107.00002315  .00144003  00000+0  25353-2 0  9997,2 46052  53.1592 295.1909 0001059  70.6602 236.3265 15.49471647  5869
STARLINK-1543,46053,53.1601,0.0001241,15.30203929,474.35283862266715,476.05383769459877,1 46053U 20055AC  26106.82355550  .00001650  00000+0  67809-4 0  9993,2 46053  53.1601 296.7823 0001241  89.3729 270.7414 15.30203929314916
STARLINK-1548,46054,53.1602,0.0001311,15.30196089,474.32827099800306,476.1252229724623,1 46054U 20055AD  26106.24309441  .00001229  00000+0  53615-4 0  9990,2 46054  53.1602 299.4807 0001311  91.0312 269.0839 15.30196089314826
STARLINK-1554,46055,53.1604,0.0001235,15.31710976,469.86144426802184,471.55310880432626,1 46055U 20055AE  26106.82329217  .00001406  00000+0  57042-4 0  9993,2 46055  53.1604 296.8505 0001235  90.9633 269.1510 15.31710976314919
STARLINK-1564,46058,53.1605,0.0001207,15.30212364,474.35095785355406,476.00534813148715,1 46058U 20055AH  26106.82678540  .00001479  00000+0  62018-4 0  9991,2 46058  53.1605 297.2272 0001207  99.0841 261.0297 15.30212364314908
STARLINK-1570,46059,53.1602,0.0001234,15.31710355,469.8639800712199,471.55427529553344,1 46059U 20055AJ  26106.78599147  .00002265  00000+0  84715-4 0  9994,2 46059  53.1602 296.9044 0001234 101.7702 258.3438 15.31710355314861
STARLINK-1572,46060,53.1597,0.0001089,15.30211159,474.4354244472579,475.92807727119543,1 46060U 20055AK  26106.67715016  .00002222  00000+0  87093-4 0  9994,2 46060  53.1597 297.6686 0001089 106.1352 253.9769 15.30211159314858
STARLINK-1573,46061,53.1577,0.0001517,15.31681255,469.7568905481712,471.83485678204124,1 46061U 20055AL  26107.00002315  .00043946  00000+0  14204-2 0  9994,2 46061  53.1577 295.8812 0001517  79.5015  98.6385 15.31681255  5868
STARLINK-1577,46063,53.1598,0.0001009,15.31677432,470.11621160847426,471.49832856217745,1 46063U 20055AN  26107.00002315  .00045822  00000+0  14804-2 0  9997,2 46063  53.1598 295.8718 0001009  76.6690 307.1854 15.31677432  5862
STARLINK-1583,46064,53.1597,0.0001269,15.30189228,474.3775383991897,476.11692731748917,1 46064U 20055AP  26106.51067236  .00000481  00000+0  28364-4 0  9996,2 46064  53.1597 298.1921 0001269  95.8745 264.2400 15.30189228314858
STARLINK-1536,46070,53.1255,7.67e-05,15.25400693,489.0557390691838,490.1092472394339,1 46070U 20055AV  26107.00002315  .00061924  00000+0  24132-2 0  9991,2 46070  53.1255 283.5038 0000767  84.6426 354.4459 15.25400693  5788
STARLINK-1542,46073,53.0553,0.0001209,15.06407418,546.3515510379684,548.026094821952,1 46073U 20055AY  26106.75950250  .00002265  00000+0  17087-3 0  9990,2 46073  53.0553 285.7129 0001209  98.2190 261.8937 15.06407418315043
STARLINK-1549,46074,53.0491,8.53e-05,15.2560014,488.3981541639814,489.56968499286177,1 46074U 20055AZ  26106.78540923  .00022393  00000+0  88056-3 0  9994,2 46074  53.0491 283.9293 0000853  92.0369 268.0726 15.25600140315066
STARLINK-1551,46075,53.1591,0.0001331,15.29348174,476.8471289276422,478.67216861554516,1 46075U 20055BA  26106.22305709  .00000491  00000+0  29351-4 0  9994,2 46075  53.1591 286.6505 0001331 102.1739 257.9411 15.29348174314989
STARLINK-1552,46076,53.1553,7.1e-05,15.29367568,477.21492408335143,478.1884531771366,1 46076U 20055BB  26106.76905036  .00002226  00000+0  89415-4 0  9998,2 46076  53.1553 284.0971 0000710 105.6469 254.4610 15.29367568315055
STARLINK-1559,46077,53.0254,0.0001736,15.33537701,464.0793604172295,466.45539041637494,1 46077U 20055BC  26106.73497059  .00045543  00000+0  13881-2 0  9998,2 46077  53.0254 256.3034 0001736 195.3756 164.7192 15.33537701315410
STARLINK-1566,46079,53.1534,6.28e-05,15.29366708,477.2737119352241,478.1348055973249,1 46079U 20055BE  26106.85001760  .00004332  00000+0  16228-3 0  9993,2 46079  53.1534 283.6961 0000628 109.1014 251.0054 15.29366708315087
STARLINK-1568,46080,53.0598,0.0004385,15.4953443,415.1069040905604,421.0671925809511,1 46080U 20055BF  26106.77791999  .00028004  00000+0  50560-3 0  9995,2 46080  53.0598 210.7863 0004385 275.8924  84.1584 15.49534430316091
STARLINK-1578,46082,53.1358,0.0002058,15.27558447,481.7015888535998,484.52567961465047,1 46082U 20055BH  26107.00002315  .00096743  00000+0  35088-2 0  9993,2 46082  53.1358 283.3904 0002058  85.5594  72.2262 15.27558447  5786
STARLINK-1579,46083,53.1549,0.0003181,15.29644179,474.6945738814911,479.0557326133876,1 46083U 20055BJ  26106.97466420  .00105582  00000+0  35873-2 0  9994,2 46083  53.1549 283.1991 0003181 166.0816 194.0272 15.29644179315095
STARLINK-1593,46119,53.0357,0.0004482,15.93048199,290.7680833955701,296.74877045626636,1 46119U 20057C   26107.00002315  .00262063  37229-4  73855-3 0  9999,2 46119  53.0357  77.3240 0004482  80.5922 275.3315 15.93048199  6015
STARLINK-1621,46127,53.0367,0.0003722,16.00039745,271.8324942857789,276.78457474167044,1 46127U 20057L   26107.00002315  .00383932  73837-4  73459-3 0  9992,2 46127  53.0367  49.4335 0003722 108.7780  63.7666 16.00039745  6015
STARLINK-1622,46128,53.0215,0.0001418,15.71274403,354.29894774685,356.2085373614382,1 46128U 20057M   26106.05426946  .00069641  00000+0  53853-3 0  9998,2 46128  53.0215  39.9547 0001418  36.1690 323.9423 15.71274403313226
STARLINK-1623,46129,53.0457,0.0002796,15.60934238,383.0662439278949,386.84816620737,1 46129U 20057N   26106.19472068  .00077113  00000+0  90117-3 0  9997,2 46129  53.0457  74.1796 0002796  18.4434 341.6679 15.60934238312766
STARLINK-1624,46130,53.0385,0.000768,15.81285596,321.65466785862645,331.9534573307719,1 46130U 20057P   26107.00002315  .00086599  00000+0  42884-3 0  9990,2 46130  53.0385  41.6998 0007680 106.5794 238.4329 15.81285596  5983
STARLINK-1596,46141,53.0391,0.0002012,15.51044309,412.309253270364,415.04227872740285,1 46141U 20057AA  26106.06834865  .00060226  00000+0  10181-2 0  9993,2 46141  53.0391  51.9715 0002012  98.8905 261.2331 15.51044309313064
STARLINK-1597,46142,53.0447,0.0005255,15.64891331,370.00329577001867,377.0993201817,1 46142U 20057AB  26106.30849848  .00049329  00000+0  49744-3 0  9997,2 46142  53.0447 113.4783 0005255 355.3600   4.7365 15.64891331312213
